GOES 1 (SMS-C) [-]      
1 08366U 75100A   22332.52230394 -.00000204  00000+0  00000+0 0  9991
2 08366   7.8815 293.6793 0002983 291.6884 305.0695  1.00246469172069
GOES 2 [-]              
1 10061U 77048A   22333.45827330 -.00000038  00000+0  00000+0 0  9999
2 10061   9.4793 305.3674 0011635  21.2396 170.5608  0.99394301110635
GOES 3 [-]              
1 10953U 78062A   22332.76276567 -.00000177  00000+0  00000+0 0  9993
2 10953   9.8224 309.9804 0001452 188.8851 308.6914  0.99358972115650
GOES 4 [-]              
1 11964U 80074A   22332.83348295 -.00000086  00000+0  00000+0 0  9997
2 11964  10.7936 313.8064 0031332  77.1354  72.5191  0.99227783114573
GOES 5 [-]              
1 12472U 81049A   22332.46458361 -.00000286  00000+0  00000+0 0  9992
2 12472  11.6772 325.2880 0001666 237.5178 325.2550  1.00274147109842
GOES 6 [-]              
1 14050U 83041A   22332.52751845 -.00000260  00000+0  00000+0 0  9992
2 14050  12.2588 330.6260 0003361 170.9089  39.9002  1.00258312203016
GOES 7 [-]              
1 17561U 87022A   22332.73309196  .00000073  00000+0  00000+0 0  9997
2 17561  14.1026 347.2130 0003630  64.1517 305.9067  0.99901168114034
GOES 8 [-]              
1 23051U 94022A   22332.63894498 -.00000058  00000+0  00000+0 0  9993
2 23051  13.3169  23.0321 0003327  34.8950 153.7132  0.98903521111306
GOES 9 [-]              
1 23581U 95025A   22332.77440352 -.00000175  00000+0  00000+0 0  9996
2 23581  12.8119  23.4180 0005761 128.6403 311.2306  0.98799974 99954
GOES 10 [-]             
1 24786U 97019A   22331.95465976 -.00000237  00000+0  00000+0 0  9996
2 24786  11.6057  29.6606 0027838 204.0499 161.4176  0.99126231 93218
GOES 11 [-]             
1 26352U 00022A   22332.50952319 -.00000261  00000+0  00000+0 0  9996
2 26352   9.0312  58.0037 0002778 187.5593 165.8419  0.99046021 39625
GOES 12 [-]             
1 26871U 01031A   22332.68436213 -.00000275  00000+0  00000+0 0  9997
2 26871   9.8124  47.0957 0004060 301.6158  94.1589  0.99138525 77918
EWS-G1 (GOES 13) [+]    
1 29155U 06018A   22333.10882961  .00000041  00000+0  00000+0 0  9998
2 29155   0.9941  93.7873 0006606 143.7781 290.9137  1.00272313 60515
GOES 14 [B]             
1 35491U 09033A   22333.44842731 -.00000092  00000+0  00000+0 0  9993
2 35491   0.2007 262.6424 0018111 319.8386 263.0861  1.00271206 49164
GOES 15 [B]             
1 36411U 10008A   22333.41988218  .00000055  00000+0  00000+0 0  9996
2 36411   0.1586 282.3285 0003248 276.5717 252.5557  1.00278666 46668
GOES 16 [+]             
1 41866U 16071A   22333.42069670 -.00000246  00000+0  00000+0 0  9998
2 41866   0.0579 258.9113 0000515  21.0044 224.6435  1.00271688 22114
GOES 17 [+]             
1 43226U 18022A   22332.70065778  .00000102  00000+0  00000+0 0  9993
2 43226   0.0344 127.7694 0000311  93.9597 320.7649  1.00271051 17425
GOES 18 [+]             
1 51850U 22021A   22330.76393437  .00000108  00000+0  00000+0 0  9995
2 51850   0.0035  85.4697 0001672 150.7672 327.5409  1.00272247  2762
